[{"OBJECT_NAME":"STARLINK-6215","OBJECT_ID":"2023-099AR","EPOCH":"2026-03-09T22:00:01.999584","MEAN_MOTION":15.14592459,"ECCENTRICITY":0.00010726,"INCLINATION":43.0008,"RA_OF_ASC_NODE":221.1612,"ARG_OF_PERICENTER":297.0481,"MEAN_ANOMALY":176.8497,"EPHEMERIS_TYPE":0,"CLASSIFICATION_TYPE":"U","NORAD_CAT_ID":57367,"ELEMENT_SET_NO":999,"REV_AT_EPOCH":572,"BSTAR":0.062021398,"MEAN_MOTION_DOT":0.01260474,"MEAN_MOTION_DDOT":0},{"OBJECT_NAME":"NEONSAT-1","OBJECT_ID":"2024-077A","EPOCH":"2026-03-09T22:26:06.154944","MEAN_MOTION":15.35891462,"ECCENTRICITY":0.00098814,"INCLINATION":97.3521,"RA_OF_ASC_NODE":152.9367,"ARG_OF_PERICENTER":35.5885,"MEAN_ANOMALY":324.6016,"EPHEMERIS_TYPE":0,"CLASSIFICATION_TYPE":"U","NORAD_CAT_ID":59587,"ELEMENT_SET_NO":999,"REV_AT_EPOCH":10448,"BSTAR":0.00040888908,"MEAN_MOTION_DOT":0.00014234,"MEAN_MOTION_DDOT":0}]
